HELLAS-SAT 2            
1 27811U 03020A   15355.12947096  .00000148  00000-0  00000+0 0  9993
2 27811   0.0003   0.3312 0003654 270.7128 263.9296  1.00270761 45930
AMC-9 (GE-12)           
1 27820U 03024A   15354.34505856 -.00000219  00000-0  00000+0 0  9994
2 27820   0.0233  39.3586 0002763 228.3497 222.1234  1.00271769 45914
THURAYA-2               
1 27825U 03026A   15354.94771664  .00000126  00000-0  00000+0 0  9995
2 27825   4.4341  26.7457 0005245 233.3783 214.2917  1.00273181 45949
OPTUS C1                
1 27831U 03028B   15353.64800600 -.00000149  00000-0  00000+0 0  9999
2 27831   0.0134 235.5815 0003472  13.4237 228.2162  1.00270949 45897
ECHOSTAR 12 (RAINBOW 1) 
1 27852U 03033A   15354.44602698 -.00000285  00000-0  00000+0 0  9995
2 27852   0.0153  15.8306 0002494 200.0069 332.0916  1.00273135 45560
GALAXY 23 (G-23)        
1 27854U 03034A   15354.64330495  .00000010  00000-0  00000+0 0  9998
2 27854   0.0275  35.7871 0003482 249.4927 274.1972  1.00273579 45204
EUTELSAT 33A            
1 27948U 03043A   15355.05761159  .00000149  00000-0  00000+0 0  9996
2 27948   1.2842  80.3853 0001935 174.8173 245.7060  1.00269842 44919
GALAXY 13 (HORIZONS-1)  
1 27954U 03044A   15355.04054603  .00000044  00000-0  00000+0 0  9996
2 27954   0.0324  50.2908 0002348 219.5205  67.0260  1.00272315 44744
YAMAL 202               
1 28089U 03053A   15355.18233063  .00000116  00000-0  00000+0 0  9990
2 28089   0.0269  60.2891 0002301 190.2046 313.5640  1.00274597 44263
AMOS-2                  
1 28132U 03059A   15354.30532019 -.00000037  00000-0  00000+0 0  9994
2 28132   0.0237 292.5657 0003849 351.6389 270.2994  1.00273077 43967
EXPRESS-AM22 (SESAT 2)  
1 28134U 03060A   15354.75599803 -.00000142  00000-0  00000+0 0  9998
2 28134   0.0290  65.3108 0001108 191.6201 184.3739  1.00278029 43869
AMC-10 (GE-10)          
1 28154U 04003A   15354.45538968  .00000085  00000-0  00000+0 0  9995
2 28154   0.0203 320.6353 0000746 300.2091 216.8265  1.00271564 43510
ABS-4 (MOBISAT-1)       
1 28184U 04007A   15354.80422123  .00000038  00000-0  00000+0 0  9994
2 28184   0.0107 345.3218 0001714 296.9019 157.3395  1.00271617 43160
EUTELSAT 7A             
1 28187U 04008A   15354.11236965  .00000045  00000-0  00000+0 0  9997
2 28187   0.0617 356.0162 0005335 258.2664 241.5493  1.00272243 43156
DIRECTV 7S              
1 28238U 04016A   15354.34406758 -.00000002  00000-0  00000+0 0  9991
2 28238   0.0290  33.6786 0003290 237.2476 182.4780  1.00271497 42652
AMC-11 (GE-11)          
1 28252U 04017A   15354.33216580  .00000066  00000-0  00000+0 0  9998
2 28252   0.0185 349.3015 0002077 283.3869 164.4917  1.00272811 42274
INTELSAT 10-02          
1 28358U 04022A   15353.22667084 -.00000013  00000-0  00000+0 0  9990
2 28358   0.0110  22.4938 0001665 191.4440 314.1900  1.00268609 42195
APSTAR 5 (TELSTAR 18)   
1 28364U 04024A   15353.84495946 -.00000296  00000-0  00000-0 0  9997
2 28364   0.0298 289.0741 0002656 333.0605 268.1617  1.00273562 42186
ANIK F2                 
1 28378U 04027A   15353.50476638 -.00000051  00000-0  00000+0 0  9993
2 28378   0.0200   5.2366 0000492 207.4653 305.7252  1.00271209 41928
AMAZONAS 1              
1 28393U 04031A   15354.28025491 -.00000289  00000-0  00000+0 0  9991
2 28393   0.6278  86.2013 0002087 169.7745 238.0601  1.00273010 41702
AMC-15                  
1 28446U 04041A   15354.45839567 -.00000092  00000-0  00000+0 0  9999
2 28446   0.0212 334.3130 0002312 284.4112 249.9744  1.00270946 40965
AMC-16                  
1 28472U 04048A   15353.42838044 -.00000208  00000-0  00000+0 0  9999
2 28472   0.0193  14.3507 0002690 239.9089 262.6841  1.00273589 40384
NSS-10 (AMC-12)         
1 28526U 05003A   15355.15403693 -.00000254  00000-0  00000+0 0  9992
2 28526   0.0206 340.4177 0003049 288.4804 198.5573  1.00271336 39901
XTAR-EUR                
1 28542U 05005A   15354.67233567  .00000148  00000-0  00000+0 0  9990
2 28542   0.0670 273.6574 0002524 350.4040  95.9157  1.00270746 39767
HIMAWARI-6 (MTSAT-1R)   
1 28622U 05006A   15353.68157775  .00000000  00000-0  00000-0 0  9994
2 28622   0.6525  83.9597 0019541 198.3827 139.1853  0.98910297  6101
XM-3 (RHYTHM)           
1 28626U 05008A   15354.45823032 -.00000208  00000-0  00000+0 0  9992
2 28626   0.0199 176.3260 0000233  11.9964 340.2509  1.00269883 39640
INMARSAT 4-F1           
1 28628U 05009A   15353.36966389 -.00000263  00000-0  00000+0 0  9998
2 28628   2.8016   4.3523 0003484 266.1930  93.6739  1.00272428 39250
EXPRESS-AM2             
1 28629U 05010A   15353.98081536 -.00000139  00000-0  00000+0 0  9993
2 28629   1.2258  81.4225 0000581 228.8529 211.1248  1.00271043 39288
APSTAR 6                
1 28638U 05012A   15353.96372690 -.00000321  00000-0  00000+0 0  9990
2 28638   0.0204  44.3261 0002101 241.4343 283.3893  1.00269108 63989
SPACEWAY 1              
1 28644U 05015A   15355.03379623 -.00000106  00000-0  00000+0 0  9994
2 28644   0.0438 181.8923 0000452  13.2102 163.4289  1.00270260 39107
DIRECTV 8               
1 28659U 05019A   15355.03211074 -.00000119  00000-0  00000+0 0  9993
2 28659   0.0358 332.4730 0002290 305.1910  82.3100  1.00273747 38772
GALAXY 28 (G-28)        
1 28702U 05022A   15353.25892463 -.00000186  00000-0  00000+0 0  9999
2 28702   0.0224  11.3490 0001095 182.6337 257.7285  1.00270412 38398
EXPRESS-AM3             
1 28707U 05023A   15354.99756803 -.00000325  00000-0  00000+0 0  9999
2 28707   0.0155 220.5234 0000560 101.9894 228.8674  1.00269497 38431
THAICOM 4               
1 28786U 05028A   15353.65293150 -.00000364  00000-0  00000+0 0  9997
2 28786   0.0187   2.5480 0002598 261.4826 178.4441  1.00270536 37914
GALAXY 14 (G-14)        
1 28790U 05030A   15354.34389225  .00000034  00000-0  00000+0 0  9994
2 28790   0.0195  28.0832 0002710 230.3061 189.0233  1.00272225 37884
ANIK F1R                
1 28868U 05036A   15353.62860640 -.00000076  00000-0  00000+0 0  9998
2 28868   0.0264  47.2148 0001676 263.5875 256.0962  1.00270980 37724
GALAXY 15 (G-15)        
1 28884U 05041A   15354.34367118  .00000076  00000-0  00000+0 0  9993
2 28884   0.0122 351.3189 0002183 300.1711 147.8509  1.00272887 37193
SYRACUSE 3A             
1 28885U 05041B   15355.18053558  .00000125  00000-0  00000+0 0  9992
2 28885   0.0130  77.5036 0004052 186.7047 297.2161  1.00270037 37311
INMARSAT 4-F2           
1 28899U 05044A   15354.58779907  .00000007  00000-0  00000+0 0  9995
2 28899   2.4704   4.5099 0002946 266.0195  93.8228  1.00272550 37084
TELKOM 2                
1 28902U 05046A   15353.65286422 -.00000365  00000-0  00000+0 0  9992
2 28902   0.0138 294.3724 0001449 329.5874 177.0029  1.00270189 36814
SPACEWAY 2              
1 28903U 05046B   15354.45969870 -.00000129  00000-0  00000+0 0  9995
2 28903   0.0222 171.9220 0000581 346.0557 357.1697  1.00266609 37071
INSAT-4A                
1 28911U 05049A   15353.52534530 -.00000167  00000-0  00000-0 0  9998
2 28911   0.1015  95.7877 0007698 170.9504  93.1817  1.00271135  7296
METEOSAT-9 (MSG-2)      
1 28912U 05049B   15355.18999407  .00000058  00000-0  00000+0 0  9998
2 28912   1.1627  64.8172 0001787 253.7032 208.5577  1.00275031 36668
EUTELSAT 172A (GE-23)   
1 28924U 05052A   15354.41200566 -.00000009  00000-0  00000+0 0  9998
2 28924   0.0614 356.0524 0007011 272.8979 140.0594  1.00272490 36564
ECHOSTAR 10             
1 28935U 06003A   15353.56361478 -.00000057  00000-0  00000-0 0  9996
2 28935   0.0173 345.4748 0001719 266.9971 288.0620  1.00271730 36065
HIMAWARI-7 (MTSAT-2)    
1 28937U 06004A   15354.86861434 -.00000247  00000-0  00000+0 0  9990
2 28937   0.0509  99.2232 0003471 169.1883 278.4088  1.00268848 35937
SPAINSAT                
1 28945U 06007A   15353.83842901 -.00000218  00000-0  00000+0 0  9994
2 28945   0.0388 313.1786 0005223 327.7917  78.9785  1.00273317 35800
EUTELSAT 9A             
1 28946U 06007B   15353.73030443  .00000060  00000-0  00000-0 0  9999
2 28946   0.0687  77.6775 0006913 193.6403  88.6106  1.00273948 35850
JCSAT-5A                
1 29045U 06010A   15353.71134994 -.00000330  00000-0  00000+0 0  9998
2 29045   0.0097 358.0369 0002066 270.1836 207.9070  1.00271141 35519
ASTRA 1KR               
1 29055U 06012A   15349.09376328  .00000125  00000-0  00000+0 0  9997
2 29055   0.0539 326.6233 0005043 315.0830 214.6851  1.00273223 35271
GOES 13                 
1 29155U 06018A   15353.96278233 -.00000253  00000-0  00000+0 0  9994
2 29155   0.2231  99.0497 0001285 326.2010 294.7698  1.00278518 35094
EUTELSAT 113 WEST A     
1 29162U 06020A   15354.06843223 -.00000040  00000-0  00000+0 0  9998
2 29162   0.0361 106.9503 0003052 168.7508  84.2712  1.00272007 35046
THAICOM 5               
1 29163U 06020B   15353.96407147 -.00000124  00000-0  00000-0 0  9992
2 29163   0.0406 290.1957 0007336 350.1351 233.4916  1.00271572 35071
GALAXY 16 (G-16)        
1 29236U 06023A   15354.45969870 -.00000130  00000-0  00000+0 0  9993
2 29236   0.0248 245.7462 0002822  17.9379 251.5380  1.00270901 34841
EUTELSAT HOT BIRD 13B   
1 29270U 06032A   15355.00760554  .00000083  00000-0  00000+0 0  9997
2 29270   0.0694  24.4320 0005339 267.7988 172.7663  1.00273094 34446
JCSAT-3A                
1 29272U 06033A   15354.97704076 -.00000348  00000-0  00000+0 0  9997
2 29272   0.0264 302.6095 0001828 307.9962 318.3708  1.00272116 34340
SYRACUSE 3B             
1 29273U 06033B   15354.30532019 -.00000047  00000-0  00000+0 0  9997
2 29273   0.0278  62.8284 0005976 206.9378 283.5137  1.00270942 34320
KOREASAT 5 (MUGUNGWHA 5)
1 29349U 06034A   15353.81646150 -.00000360  00000-0  00000+0 0  9997
2 29349   0.0106   0.1986 0001050 236.9747 257.8978  1.00272189 34210
ZHONGXING-22A           
1 29398U 06038A   15354.98176242 -.00000323  00000-0  00000+0 0  9993
2 29398   4.8331  61.3284 0007110 191.3148 291.5568  1.00271431 33991
